start=new Date('2021-11-09T00:00:00.000Z').valueOf();
sats=[{"INCLINATION":"53.0544","EPHEMERIS_TYPE":"0","APOAPSIS":"548.273","COUNTRY_CODE":"US","PERIAPSIS":"546.198","EPOCH":"2021-11-08T16:39:46.462464","TIME_SYSTEM":"UTC","NORAD_CAT_ID":"44772","RCS_SIZE":"LARGE","RA_OF_ASC_NODE":"108.4746","OBJECT_NAME":"STARLINK-1068","PERIOD":"95.593","TLE_LINE2":"2 44772  53.0544 108.4746 0001498  83.9924 276.1235 15.06392772110026","ARG_OF_PERICENTER":"83.9924","MEAN_MOTION":"15.06392772","REV_AT_EPOCH":"11002","OBJECT_ID":"2019-074BM","GP_ID":"189300845","MEAN_ELEMENT_THEORY":"SGP4","MEAN_MOTION_DDOT":"0.0000000000000","CENTER_NAME":"EARTH","SEMIMAJOR_AXIS":"6925.371","REF_FRAME":"TEME","LAUNCH_DATE":"2019-11-11","TLE_LINE1":"1 44772U 19074BM  21312.69428776  .00001657  00000-0  13016-3 0  9996","ELEMENT_SET_NO":"999","CLASSIFICATION_TYPE":"U","MEAN_ANOMALY":"276.1235","ECCENTRICITY":"0.00014980","FILE":"3209620","MEAN_MOTION_DOT":"0.00001657","SITE":"AFETR","BSTAR":"0.00013016000000","OBJECT_TYPE":"PAYLOAD","DECAY_DATE":null},{"GP_ID":"189301362","MEAN_ELEMENT_THEORY":"SGP4","CENTER_NAME":"EARTH","MEAN_MOTION_DDOT":"0.0000000000000","OBJECT_ID":"2020-001A","ARG_OF_PERICENTER":"68.6351","MEAN_MOTION":"15.06396315","REV_AT_EPOCH":"10141","REF_FRAME":"TEME","SEMIMAJOR_AXIS":"6925.360","EPOCH":"2021-11-08T18:39:10.532736","TIME_SYSTEM":"UTC","NORAD_CAT_ID":"44914","COUNTRY_CODE":"US","PERIAPSIS":"546.130","INCLINATION":"53.0539","EPHEMERIS_TYPE":"0","APOAPSIS":"548.320","TLE_LINE2":"2 44914  53.0539 248.1074 0001581  68.6351 291.4807 15.06396315101416","OBJECT_NAME":"STARLINK-1073","PERIOD":"95.592","RA_OF_ASC_NODE":"248.1074","RCS_SIZE":"LARGE","SITE":"AFETR","BSTAR":"0.00004183100000","MEAN_MOTION_DOT":"0.00000342","ECCENTRICITY":"0.00015810","FILE":"3209620","DECAY_DATE":null,"OBJECT_TYPE":"PAYLOAD","ELEMENT_SET_NO":"999","TLE_LINE1":"1 44914U 20001A   21312.77720524  .00000342  00000-0  41831-4 0  9998","LAUNCH_DATE":"2020-01-07","MEAN_ANOMALY":"291.4807","CLASSIFICATION_TYPE":"U"},{"ELEMENT_SET_NO":"999","LAUNCH_DATE":"2020-01-07","TLE_LINE1":"1 44915U 20001B   21312.54131705  .00004928  00000-0  34962-3 0  9991","MEAN_ANOMALY":"286.1881","CLASSIFICATION_TYPE":"U","SITE":"AFETR","BSTAR":"0.00034962000000","FILE":"3209238","ECCENTRICITY":"0.00013870","MEAN_MOTION_DOT":"0.00004928","DECAY_DATE":null,"OBJECT_TYPE":"PAYLOAD","PERIAPSIS":"546.288","COUNTRY_CODE":"US","EPOCH":"2021-11-08T12:59:29.793120","NORAD_CAT_ID":"44915","TIME_SYSTEM":"UTC","APOAPSIS":"548.209","INCLINATION":"53.0523","EPHEMERIS_TYPE":"0","PERIOD":"95.593","OBJECT_NAME":"STARLINK-1084","TLE_LINE2":"2 44915  53.0523 249.1669 0001387  73.9261 286.1881 15.06388629101382","RCS_SIZE":"LARGE","RA_OF_ASC_NODE":"249.1669","OBJECT_ID":"2020-001B","MEAN_MOTION_DDOT":"0.0000000000000","CENTER_NAME":"EARTH","GP_ID":"189270124","MEAN_ELEMENT_THEORY":"SGP4","MEAN_MOTION":"15.06388629","REV_AT_EPOCH":"10138","ARG_OF_PERICENTER":"73.9261","REF_FRAME":"TEME","SEMIMAJOR_AXIS":"6925.383"},{"APOAPSIS":"356.596","INCLINATION":"53.0517","EPHEMERIS_TYPE":"0","EPOCH":"2021-11-08T10:03:11.746944","NORAD_CAT_ID":"44916","TIME_SYSTEM":"UTC","PERIAPSIS":"352.816","COUNTRY_CODE":"US","RA_OF_ASC_NODE":"204.7922","RCS_SIZE":"LARGE","TLE_LINE2":"2 44916  53.0517 204.7922 0002807  17.3794 342.7319 15.71466909101998","PERIOD":"91.634","OBJECT_NAME":"STARLINK-1097","REV_AT_EPOCH":"10199","ARG_OF_PERICENTER":"17.3794","MEAN_MOTION":"15.71466909","CENTER_NAME":"EARTH","MEAN_MOTION_DDOT":"0.0000000000000","GP_ID":"189269875","MEAN_ELEMENT_THEORY":"SGP4","OBJECT_ID":"2020-001C","SEMIMAJOR_AXIS":"6732.841","REF_FRAME":"TEME","TLE_LINE1":"1 44916U 20001C   21312.41888596  .00026593  00000-0  20789-3 0  9999","LAUNCH_DATE":"2020-01-07","ELEMENT_SET_NO":"999","CLASSIFICATION_TYPE":"U","MEAN_ANOMALY":"342.7319","MEAN_MOTION_DOT":"0.00026593","ECCENTRICITY":"0.00028070","FILE":"3209238","BSTAR":"0.00020789000000","SITE":"AFETR","OBJECT_TYPE":"PAYLOAD","DECAY_DATE":null},{"DECAY_DATE":null,"OBJECT_TYPE":"PAYLOAD","SITE":"AFETR","BSTAR":"0.00042365000000","MEAN_MOTION_DOT":"0.00006034","FILE":"3208937","ECCENTRICITY":"0.00016420","MEAN_ANOMALY":"281.5500","CLASSIFICATION_TYPE":"U","ELEMENT_SET_NO":"999","TLE_LINE1":"1 44917U 20001D   21312.54499698  .00006034  00000-0  42365-3 0  9997","LAUNCH_DATE":"2020-01-07","REF_FRAME":"TEME","SEMIMAJOR_AXIS":"6925.361","GP_ID":"189242647","MEAN_ELEMENT_THEORY":"SGP4","CENTER_NAME":"EARTH","MEAN_MOTION_DDOT":"0.0000000000000","OBJECT_ID":"2020-001D","ARG_OF_PERICENTER":"78.5673","MEAN_MOTION":"15.06395893","REV_AT_EPOCH":"10138","TLE_LINE2":"2 44917  53.0530 249.1528 0001642  78.5673 281.5500 15.06395893101386","OBJECT_NAME":"STARLINK-1098","PERIOD":"95.592","RA_OF_ASC_NODE":"249.1528","RCS_SIZE":"LARGE","EPOCH":"2021-11-08T13:04:47.739072","NORAD_CAT_ID":"44917","TIME_SYSTEM":"UTC","PERIAPSIS":"546.089","COUNTRY_CODE":"US","EPHEMERIS_TYPE":"0","INCLINATION":"53.0530","APOAPSIS":"548.363"},{"OBJECT_TYPE":"PAYLOAD","DECAY_DATE":null,"MEAN_MOTION_DOT":"0.00011282","FILE":"3209552","ECCENTRICITY":"0.00016660","BSTAR":"0.00077473000000","SITE":"AFETR","CLASSIFICATION_TYPE":"U","MEAN_ANOMALY":"286.4136","TLE_LINE1":"1 44918U 20001E   21312.55606498  .00011282  00000-0  77473-3 0  9996","LAUNCH_DATE":"2020-01-07","ELEMENT_SET_NO":"999","SEMIMAJOR_AXIS":"6925.299","REF_FRAME":"TEME","ARG_OF_PERICENTER":"73.7036","MEAN_MOTION":"15.06416191","REV_AT_EPOCH":"10212","CENTER_NAME":"EARTH","MEAN_MOTION_DDOT":"0.0000000000000","GP_ID":"189280413","MEAN_ELEMENT_THEORY":"SGP4","OBJECT_ID":"2020-001E","RA_OF_ASC_NODE":"249.1042","RCS_SIZE":"LARGE","TLE_LINE2":"2 44918  53.0534 249.1042 0001666  73.7036 286.4136 15.06416191102125","PERIOD":"95.591","OBJECT_NAME":"STARLINK-1099","APOAPSIS":"548.318","EPHEMERIS_TYPE":"0","INCLINATION":"53.0534","TIME_SYSTEM":"UTC","EPOCH":"2021-11-08T13:20:44.014272","NORAD_CAT_ID":"44918","COUNTRY_CODE":"US","PERIAPSIS":"546.010"},{"REF_FRAME":"TEME","SEMIMAJOR_AXIS":"6677.446","OBJECT_ID":"2020-001F","MEAN_ELEMENT_THEORY":"SGP4","GP_ID":"189269625","CENTER_NAME":"EARTH","MEAN_MOTION_DDOT":"0.0000358810000","MEAN_MOTION":"15.91062146","ARG_OF_PERICENTER":"140.9457","REV_AT_EPOCH":"10190","OBJECT_NAME":"STARLINK-1101","PERIOD":"90.506","TLE_LINE2":"2 44919  53.0493 209.0148 0001743 140.9457 219.1694 15.91062146101900","RCS_SIZE":"LARGE","RA_OF_ASC_NODE":"209.0148","PERIAPSIS":"298.148","COUNTRY_CODE":"US","EPOCH":"2021-11-08T02:09:32.471424","TIME_SYSTEM":"UTC","NORAD_CAT_ID":"44919","INCLINATION":"53.0493","EPHEMERIS_TYPE":"0","APOAPSIS":"300.475","DECAY_DATE":null,"OBJECT_TYPE":"PAYLOAD","BSTAR":"0.00080902000000","SITE":"AFETR","FILE":"3209238","ECCENTRICITY":"0.00017430","MEAN_MOTION_DOT":"0.00258642","MEAN_ANOMALY":"219.1694","CLASSIFICATION_TYPE":"U","ELEMENT_SET_NO":"999","LAUNCH_DATE":"2020-01-07","TLE_LINE1":"1 44919U 20001F   21312.08995916  .00258642  35881-4  80902-3 0  9994"},{"DECAY_DATE":null,"OBJECT_TYPE":"PAYLOAD","SITE":"AFETR","BSTAR":"-0.00011284000000","FILE":"3209238","ECCENTRICITY":"0.00015650","MEAN_MOTION_DOT":"-0.00001961","MEAN_ANOMALY":"293.4149","CLASSIFICATION_TYPE":"U","ELEMENT_SET_NO":"999","LAUNCH_DATE":"2020-01-07","TLE_LINE1":"1 44920U 20001G   21312.23905889 -.00001961  00000-0 -11284-3 0  9993","REF_FRAME":"TEME","SEMIMAJOR_AXIS":"6925.381","OBJECT_ID":"2020-001G","MEAN_MOTION_DDOT":"0.0000000000000","CENTER_NAME":"EARTH","GP_ID":"189270375","MEAN_ELEMENT_THEORY":"SGP4","MEAN_MOTION":"15.06389508","REV_AT_EPOCH":"10133","ARG_OF_PERICENTER":"66.7005","PERIOD":"95.593","OBJECT_NAME":"STARLINK-1102","TLE_LINE2":"2 44920  53.0535 250.5186 0001565  66.7005 293.4149 15.06389508101335","RCS_SIZE":"LARGE","RA_OF_ASC_NODE":"250.5186","COUNTRY_CODE":"US","PERIAPSIS":"546.162","TIME_SYSTEM":"UTC","NORAD_CAT_ID":"44920","EPOCH":"2021-11-08T05:44:14.688096","APOAPSIS":"548.330","INCLINATION":"53.0535","EPHEMERIS_TYPE":"0"},{"MEAN_ANOMALY":"289.7728","CLASSIFICATION_TYPE":"U","ELEMENT_SET_NO":"999","LAUNCH_DATE":"2020-01-07","TLE_LINE1":"1 44921U 20001H   21312.31679886  .00014354  00000-0  10017-2 0  9998","DECAY_DATE":null,"OBJECT_TYPE":"PAYLOAD","SITE":"AFETR","BSTAR":"0.00100170000000","FILE":"3209620","ECCENTRICITY":"0.00014920","MEAN_MOTION_DOT":"0.00014354","OBJECT_NAME":"STARLINK-1103","PERIOD":"95.643","TLE_LINE2":"2 44921  52.9989 250.1729 0001492  70.3421 289.7728 15.05601719101328","RCS_SIZE":"LARGE","RA_OF_ASC_NODE":"250.1729","PERIAPSIS":"548.628","COUNTRY_CODE":"US","EPOCH":"2021-11-08T07:36:11.421504","NORAD_CAT_ID":"44921","TIME_SYSTEM":"UTC","INCLINATION":"52.9989","EPHEMERIS_TYPE":"0","APOAPSIS":"550.695","REF_FRAME":"TEME","SEMIMAJOR_AXIS":"6927.796","OBJECT_ID":"2020-001H","GP_ID":"189301612","MEAN_ELEMENT_THEORY":"SGP4","MEAN_MOTION_DDOT":"0.0000000000000","CENTER_NAME":"EARTH","REV_AT_EPOCH":"10132","ARG_OF_PERICENTER":"70.3421","MEAN_MOTION":"15.05601719"},{"MEAN_ANOMALY":"289.0181","CLASSIFICATION_TYPE":"U","ELEMENT_SET_NO":"999","TLE_LINE1":"1 44922U 20001J   21312.89149046  .00013382  00000-0  91509-3 0  9998","LAUNCH_DATE":"2020-01-07","DECAY_DATE":null,"OBJECT_TYPE":"PAYLOAD","BSTAR":"0.00091509000000","SITE":"AFETR","MEAN_MOTION_DOT":"0.00013382","FILE":"3209620","ECCENTRICITY":"0.00014960","TLE_LINE2":"2 44922  53.0520 247.5923 0001496  71.0970 289.0181 15.06418206101435","PERIOD":"95.591","OBJECT_NAME":"STARLINK-1104","RA_OF_ASC_NODE":"247.5923","RCS_SIZE":"LARGE","EPOCH":"2021-11-08T21:23:44.775744","TIME_SYSTEM":"UTC","NORAD_CAT_ID":"44922","PERIAPSIS":"546.122","COUNTRY_CODE":"US","APOAPSIS":"548.194","EPHEMERIS_TYPE":"0","INCLINATION":"53.0520","REF_FRAME":"TEME","SEMIMAJOR_AXIS":"6925.293","CENTER_NAME":"EARTH","MEAN_MOTION_DDOT":"0.0000000000000","MEAN_ELEMENT_THEORY":"SGP4","GP_ID":"189301363","OBJECT_ID":"2020-001J","ARG_OF_PERICENTER":"71.0970","MEAN_MOTION":"15.06418206","REV_AT_EPOCH":"10143"}];
